1 45215U 20012AP  22365.02553459  .00003339  00000-0  24295-3 0  9996
2 45215  53.0526 215.0069 0001308 100.6080 259.5056 15.06401661158635
1 45215U 20012AP  22365.55630440  .00004266  00000-0  30498-3 0  9992
2 45215  53.0519 212.6239 0001325  99.1740 260.9399 15.06412051159590
1 45215U 20012AP  22365.62265664  .00000902  00000-0  79417-4 0  9990
2 45215  53.0536 212.3264 0001359 103.3500 256.7640 15.06402694159609
1 45215U 20012AP  23001.02073710  .00001195  00000-0  99108-4 0  9995
2 45215  53.0520 210.5392 0001434 100.0178 260.0973 15.06402570158781
1 45215U 20012AP  23001.28612741 -.00001067  00000-0 -52728-4 0  9993
2 45215  53.0517 209.3472 0001367  98.6911 261.4233 15.06396010159702
1 45215U 20012AP  23001.28612741 -.00001067  00000-0 -52728-4 0  9993
2 45215  53.0517 209.3472 0001367  98.6911 261.4233 15.06396010158824
1 45215U 20012AP  23001.75055983 -.00002432  00000-0 -14444-3 0  9993
2 45215  53.0518 207.2619 0001396  97.2351 262.8797 15.06389852159771
1 45215U 20012AP  23001.94960753  .00000132  00000-0  27739-4 0  9999
2 45215  53.0535 206.3692 0001496 101.1837 258.9320 15.06386070158929
1 45215U 20012AP  23002.28133810 -.00000929  00000-0 -43479-4 0  9998
2 45215  53.0530 204.8795 0001363  98.7935 261.3208 15.06395318158977
1 45215U 20012AP  23002.54672162 -.00004190  00000-0 -26250-3 0  9996
2 45215  53.0528 203.6879 0001344  99.4985 260.6156 15.06406933159898
1 45215U 20012AP  23002.87846089 -.00000135  00000-0  98627-5 0  9996
2 45215  53.0525 202.1988 0001355 102.8825 257.2316 15.06392205159946
1 45215U 20012AP  23003.54193189  .00001085  00000-0  91726-4 0  9993
2 45215  53.0525 199.2208 0001308 101.0260 259.0876 15.06389653160046
1 45215U 20012AP  23003.54193189  .00001085  00000-0  91726-4 0  9993
2 45215  53.0525 199.2208 0001308 101.0260 259.0876 15.06389653159167
1 45215U 20012AP  23003.94001324  .00001334  00000-0  10848-3 0  9998
2 45215  53.0525 197.4335 0001308 101.5601 258.5535 15.06391297160101
1 45215U 20012AP  23004.80251861  .00001659  00000-0  13024-3 0  9996
2 45215  53.0525 193.5613 0001307 101.7622 258.3513 15.06399310160233
1 45215U 20012AP  23004.80251861  .00001659  00000-0  13024-3 0  9996
2 45215  53.0525 193.5613 0001307 101.7622 258.3513 15.06399310159354
1 45215U 20012AP  23005.53232732  .00001818  00000-0  14091-3 0  9995
2 45215  53.0528 190.2849 0001283 102.2985 257.8148 15.06406407160348
1 45215U 20012AP  23005.79771488  .00001601  00000-0  12633-3 0  9999
2 45215  53.0529 189.0933 0001266 102.2750 257.8381 15.06405079160387
1 45215U 20012AP  23006.19580041  .00000259  00000-0  36295-4 0  9996
2 45215  53.0539 187.3061 0001240 104.8592 255.2535 15.06400326159566
1 45215U 20012AP  23006.92560968  .00000381  00000-0  44447-4 0  9997
2 45215  53.0527 184.0301 0001288 102.0069 258.1065 15.06406103160555
1 45215U 20012AP  23007.19099378  .00000640  00000-0  61871-4 0  9997
2 45215  53.0525 182.8387 0001266 102.9800 257.1330 15.06408747160595
1 45215U 20012AP  23007.45638099  .00000603  00000-0  59397-4 0  9994
2 45215  53.0520 181.6468 0001683  97.7368 262.3812 15.06409190159752
1 45215U 20012AP  23007.52273302 -.00000434  00000-0 -10238-4 0  9999
2 45215  53.0523 181.3483 0001329 105.9248 254.1887 15.06401604159769
1 45215U 20012AP  23007.85446824 -.00000821  00000-0 -36229-4 0  9994
2 45215  53.0528 179.8597 0001254 106.8683 253.2443 15.06399935160697
1 45215U 20012AP  23008.45159140  .00000456  00000-0  49527-4 0  9990
2 45215  53.0539 177.1795 0001387 102.6153 257.4991 15.06395598160788
1 45215U 20012AP  23008.84966571  .00000900  00000-0  79284-4 0  9994
2 45215  53.0534 175.3924 0001353 102.4216 257.6925 15.06403265160845
1 45215U 20012AP  23008.84966571  .00000900  00000-0  79284-4 0  9994
2 45215  53.0534 175.3924 0001353 102.4216 257.6925 15.06403265159966
1 45215U 20012AP  23009.44678616  .00001359  00000-0  11013-3 0  9995
2 45215  53.0522 172.7103 0001659 104.9807 255.1365 15.06401045160939
1 45215U 20012AP  23009.71217717  .00000700  00000-0  65911-4 0  9992
2 45215  53.0526 171.5194 0001357 107.2486 252.8652 15.06396803160976
1 45215U 20012AP  23009.71217717  .00000700  00000-0  65911-4 0  9992
2 45215  53.0526 171.5194 0001357 107.2486 252.8652 15.06396803160099
1 45215U 20012AP  23010.44198874  .00000751  00000-0  69282-4 0  9997
2 45215  53.0526 168.2434 0001704  99.4124 260.7057 15.06403293161085
1 45215U 20012AP  23010.70737825 -.00000278  00000-0  22778-6 0  9997
2 45215  53.0520 167.0528 0001596  97.6019 262.5151 15.06400336161127
1 45215U 20012AP  23011.70257599  .00002104  00000-0  16012-3 0  9993
2 45215  53.0520 162.5853 0001384  99.8402 260.2743 15.06399803160399
1 45215U 20012AP  23011.83526659  .00000577  00000-0  57611-4 0  9996
2 45215  53.0520 161.9895 0001341  93.8440 266.2703 15.06407318161290
1 45215U 20012AP  23012.76414252 -.00000547  00000-0 -17828-4 0  9999
2 45215  53.0518 157.8223 0001552 106.7451 253.3708 15.06385160161434
1 45215U 20012AP  23012.76414252 -.00000547  00000-0 -17828-4 0  9999
2 45215  53.0518 157.8223 0001552 106.7451 253.3708 15.06385160160556
1 45215U 20012AP  23013.09587025  .00000506  00000-0  52875-4 0  9999
2 45215  53.0566 156.3337 0001315 105.8099 254.3035 15.06396258160604
1 45215U 20012AP  23013.56029223  .00001369  00000-0  11077-3 0  9998
2 45215  53.0523 154.2457 0001321 101.2516 258.8622 15.06403180161557
1 45215U 20012AP  23013.75933383  .00001336  00000-0  10854-3 0  9996
2 45215  53.0526 153.3517 0001304  99.8853 260.2283 15.06402538161583
1 45215U 20012AP  23014.09107985 -.00000843  00000-0 -37754-4 0  9998
2 45215  53.0535 151.8622 0001092  81.6107 278.5006 15.06382813160754
1 45215U 20012AP  23014.42283452 -.00003905  00000-0 -24370-3 0  9990
2 45215  53.0516 150.3736 0001322  85.4952 274.6188 15.06357437160807
1 45215U 20012AP  23014.75457255 -.00002361  00000-0 -13977-3 0  9996
2 45215  53.0523 148.8834 0001771  80.5190 279.5999 15.06366416160850
1 45215U 20012AP  23015.08630316 -.00000342  00000-0 -40983-5 0  9990
2 45215  53.0530 147.3945 0001155  82.9397 277.1723 15.06375927160908
1 45215U 20012AP  23015.55073198  .00010432  00000-0  71825-3 0  9997
2 45215  53.0512 145.3103 0001269  68.7522 291.3602 15.06396701160974
1 45215U 20012AP  23015.61707763  .00012805  00000-0  87695-3 0  9994
2 45215  53.0499 145.0129 0001332  80.8318 279.2821 15.06401368161865
1 45215U 20012AP  23015.74976990  .00019883  00000-0  13495-2 0  9997
2 45215  53.0509 144.4143 0001392  85.7209 274.3939 15.06412044161886
1 45215U 20012AP  23015.74976990  .00019883  00000-0  13495-2 0  9997
2 45215  53.0509 144.4143 0001392  85.7209 274.3939 15.06412044161000
1 45215U 20012AP  23016.08150454  .00010766  00000-0  74033-3 0  9991
2 45215  53.0499 142.9290 0001633  71.4126 288.7040 15.06409652161050
1 45215U 20012AP  23016.47957906  .00016925  00000-0  11514-2 0  9998
2 45215  53.0510 141.1392 0001825  85.3951 274.7246 15.06432335161115
1 45215U 20012AP  23016.61227020  .00017321  00000-0  11778-2 0  9994
2 45215  53.0507 140.5436 0001497  77.3110 282.8046 15.06433242162012
1 45215U 20012AP  23016.74496326  .00035265  00000-0  23724-2 0  9996
2 45215  53.0509 139.9479 0001482  78.2252 281.8903 15.06433520162036
1 45215U 20012AP  23017.60746825  .00032505  00000-0  21892-2 0  9992
2 45215  53.0510 136.0756 0001466  87.5633 272.5524 15.06430779162165
1 45215U 20012AP  23017.60746825  .00032505  00000-0  21892-2 0  9992
2 45215  53.0510 136.0756 0001466  87.5633 272.5524 15.06430779161287
1 45215U 20012AP  23018.33727924  .00032038  00000-0  21582-2 0  9999
2 45215  53.0516 132.7997 0001125  68.6606 291.4503 15.06430810161390
1 45215U 20012AP  23018.60266704  .00034372  00000-0  23145-2 0  9993
2 45215  53.0518 131.6087 0001668  87.9098 272.2082 15.06410876162313
1 45215U 20012AP  23018.60266704  .00034372  00000-0  23145-2 0  9993
2 45215  53.0518 131.6087 0001668  87.9098 272.2082 15.06410876161435
1 45215U 20012AP  23019.00074493  .00021789  00000-0  14764-2 0  9995
2 45215  53.0514 129.8216 0000554  48.9438 311.1599 15.06418157161494
1 45215U 20012AP  23019.26613685  .00007778  00000-0  54046-3 0  9995
2 45215  53.0527 128.6335 0001678  96.4000 263.7180 15.06399776162414
1 45215U 20012AP  23019.26613685  .00007778  00000-0  54046-3 0  9995
2 45215  53.0527 128.6335 0001678  96.4000 263.7180 15.06399776161536
1 45215U 20012AP  23020.46037606  .00005697  00000-0  40098-3 0  9992
2 45215  53.0536 123.2694 0002145  87.4092 272.7142 15.06407364162594
1 45215U 20012AP  23020.46037606  .00005697  00000-0  40098-3 0  9992
2 45215  53.0536 123.2694 0002145  87.4092 272.7142 15.06407364161717
1 45215U 20012AP  23020.99115399 -.00000650  00000-0 -24732-4 0  9990
2 45215  53.0531 120.8849 0001633  73.3282 286.7886 15.06394572161797
1 45215U 20012AP  23021.58827021  .00000985  00000-0  85028-4 0  9992
2 45215  53.0542 118.2070 0001467  72.2918 287.8231 15.06408697161885
1 45215U 20012AP  23022.98155388  .00002272  00000-0  17140-3 0  9997
2 45215  53.0530 111.9510 0001851  66.3909 293.7274 15.06402859162093
1 45215U 20012AP  23023.51235264 -.00006283  00000-0 -40369-3 0  9996
2 45215  53.0548 109.5696 0001109  63.1603 296.9499 15.06362424162178
1 45215U 20012AP  23024.24216542  .00001329  00000-0  10812-3 0  9999
2 45215  53.0526 106.2924 0001626  80.8641 279.2532 15.06387777162286
1 45215U 20012AP  23024.50755893  .00030596  00000-0  20635-2 0  9996
2 45215  53.0525 105.1016 0001720  79.7660 280.3523 15.06409350162328
1 45215U 20012AP  23025.03833337  .00007663  00000-0  53275-3 0  9991
2 45215  53.0527 102.7160 0002059 119.5412 240.5782 15.06402308162407
1 45215U 20012AP  23025.43641957  .00022441  00000-0  15206-2 0  9992
2 45215  53.0522 100.9317 0001735  89.8206 270.2982 15.06400217163349
1 45215U 20012AP  23025.96719364  .00019158  00000-0  13011-2 0  9991
2 45215  53.0520  98.5493 0001875  80.5003 279.6198 15.06412292162541
1 45215U 20012AP  23026.49796683  .00038424  00000-0  25830-2 0  9998
2 45215  53.0518  96.1650 0001808  80.9532 279.1662 15.06420291163500
1 45215U 20012AP  23026.49796683  .00038424  00000-0  25830-2 0  9998
2 45215  53.0518  96.1650 0001808  80.9532 279.1662 15.06420291162622
1 45215U 20012AP  23026.89604892  .00025128  00000-0  16989-2 0  9994
2 45215  53.0523  94.3777 0002462  75.5323 284.5939 15.06419315162681
1 45215U 20012AP  23027.16143340  .00005449  00000-0  38434-3 0  9995
2 45215  53.0521  93.1879 0001715  79.5332 280.5850 15.06405734162726
1 45215U 20012AP  23027.49316693  .00009032  00000-0  62433-3 0  9992
2 45215  53.0522  91.6983 0001720  76.9121 283.2060 15.06409280163655
1 45215U 20012AP  23028.15663804  .00004318  00000-0  30861-3 0  9997
2 45215  53.0521  88.7218 0001999  71.3189 288.8017 15.06400307162870
1 45215U 20012AP  23028.55471464  .00003050  00000-0  22350-3 0  9996
2 45215  53.0518  86.9304 0001741  86.6102 273.5086 15.06407741163812
1 45215U 20012AP  23028.88645347  .00001565  00000-0  12395-3 0  9992
2 45215  53.0516  85.4418 0002204  80.8247 279.2991 15.06398880163867
1 45215U 20012AP  23029.15184116  .00001124  00000-0  94373-4 0  9993
2 45215  53.0514  84.2494 0001871  83.9451 276.1751 15.06396245163027
1 45215U 20012AP  23029.41722790  .00001848  00000-0  14295-3 0  9995
2 45215  53.0528  83.0616 0001938  72.7654 287.3547 15.06400200163945
1 45215U 20012AP  23030.47877789  .00000245  00000-0  35353-4 0  9991
2 45215  53.0543  78.2935 0001989 101.7218 258.3994 15.06398109163226
1 45215U 20012AP  23030.54512354  .00000516  00000-0  53531-4 0  9992
2 45215  53.0536  77.9946 0001877 101.0775 259.0425 15.06399790164116
1 45215U 20012AP  23031.54032318  .00002519  00000-0  18795-3 0  9997
2 45215  53.0539  73.5275 0001861  98.3809 261.7391 15.06407040163383
1 45215U 20012AP  23031.80571500  .00000091  00000-0  24988-4 0  9992
2 45215  53.0520  72.3365 0001877  84.0828 276.0375 15.06398363164301
1 45215U 20012AP  23031.80571500  .00000091  00000-0  24988-4 0  9992
2 45215  53.0520  72.3365 0001877  84.0828 276.0375 15.06398363163423
